IRIDIUM 126             
1 42809U 17039G   25342.26197591  .00000494  00000+0  16927-3 0  9993
2 42809  86.3968  73.4576 0001840  96.9904 263.1501 14.34215562442581
IRIDIUM 124             
1 42810U 17039H   25342.32325738  .00001001  00000+0  29150-3 0  9995
2 42810  86.4494  10.1543 0002163  97.8106 262.3341 14.43287523447587
IRIDIUM 128             
1 42811U 17039J   25342.25271539  .00000516  00000+0  17733-3 0  9991
2 42811  86.3962 104.9951 0002303 101.9075 258.2379 14.34215270442614
IRIDIUM 121             
1 42812U 17039K   25342.28100755  .00000435  00000+0  14813-3 0  9992
2 42812  86.3968  73.4761 0002176  96.0142 264.1302 14.34217662442469
IRIDIUM 133             
1 42955U 17061A   25342.07512549  .00000035  00000+0  53515-5 0  9990
2 42955  86.3963 105.1824 0002064  96.5891 263.5540 14.34216071427381
IRIDIUM 100             
1 42956U 17061B   25342.27807899  .00000606  00000+0  20943-3 0  9999
2 42956  86.3961 105.0206 0001955  97.8335 262.3083 14.34221629427416
IRIDIUM 122             
1 42957U 17061C   25342.31614237 -.00000009  00000+0 -10114-4 0  9996
2 42957  86.3963 105.0049 0001800  96.8085 263.3315 14.34217089427429
IRIDIUM 129             
1 42958U 17061D   25342.27174065  .00000233  00000+0  76230-4 0  9990
2 42958  86.3962 105.0878 0001876  84.6331 275.5079 14.34219219427431
